ONEWEB-0616             
1 55157U 23004T   23309.62449441 -.00000020  00000+0 -82796-4 0  9992
2 55157  88.1149 195.4959 0002017  38.4256 321.7019 13.17649200 41995
ONEWEB-0617             
1 55158U 23004U   23309.44156526 -.00000563  00000+0 -16252-2 0  9996
2 55158  87.9009 210.7856 0001944  88.8782 271.2568 13.11415557 40724
ONEWEB-0618             
1 55159U 23004V   23309.61211328  .00000317  00000+0  12325-3 0  9991
2 55159  86.9133 172.8961 0011700 296.5334  63.4658 14.26681691 43320
ONEWEB-0619             
1 55160U 23004W   23309.43254728 -.00000001  00000+0 -34444-4 0  9993
2 55160  87.9244 195.6040 0002369  67.5323 292.6059 13.17648168 41861
ONEWEB-0620             
1 55161U 23004X   23309.43669602 -.00000106  00000+0 -33566-3 0  9994
2 55161  87.9013 210.7899 0001715  93.0535 267.0789 13.11413963 40693
ONEWEB-0621             
1 55162U 23004Y   23309.46268168 -.00000334  00000+0 -97779-3 0  9999
2 55162  87.8997 210.7674 0002182  72.8786 287.2581 13.11420176 40673
ONEWEB-0622             
1 55163U 23004Z   23309.46915641 -.00000224  00000+0 -66800-3 0  9994
2 55163  87.9001 210.7776 0002243  98.6597 261.4785 13.11418332 40668
ONEWEB-0623             
1 55164U 23004AA  23309.42621799  .00000019  00000+0  14543-4 0  9997
2 55164  87.9225 195.6670 0002385  92.5933 267.5472 13.17646615 41850
